[
  {
    "OBJECT_NAME": "STARLINK-5810",
    "OBJECT_ID": "23028AM",
    "EPOCH": "2025-11-11T08:00:03.000384",
    "MEAN_MOTION": 15.87552753,
    "ECCENTRICITY": 0.0004267,
    "INCLINATION": 69.995,
    "RA_OF_ASC_NODE": 152.5507,
    "ARG_OF_PERICENTER": 266.77,
    "MEAN_ANOMALY": 338.5432,
    "EPHEMERIS_TYPE": 0,
    "CLASSIFICATION_TYPE": "U",
    "NORAD_CAT_ID": 55776,
    "ELEMENT_SET_NO": 999,
    "REV_AT_EPOCH": 589,
    "BSTAR": 0.0035905,
    "MEAN_MOTION_DOT": 0.01077989,
    "MEAN_MOTION_DDOT": 0.0,
    "TLE_LINE1": "1 55776U 23028AM  25315.33336806  .01077989  00000+0  35905-2 0  9997",
    "TLE_LINE2": "2 55776  69.9950 152.5507 0004267 266.7700 338.5432 15.87552753  5890",
    "COMMENT": "Grouped by shell and plane from TLE"
  },
  {
    "OBJECT_NAME": "STARLINK-6151",
    "OBJECT_ID": "23090T",
    "EPOCH": "2025-11-10T21:25:39.422496",
    "MEAN_MOTION": 15.59953378,
    "ECCENTRICITY": 0.0008417,
    "INCLINATION": 42.9892,
    "RA_OF_ASC_NODE": 151.2794,
    "ARG_OF_PERICENTER": 278.2291,
    "MEAN_ANOMALY": 81.7617,
    "EPHEMERIS_TYPE": 0,
    "CLASSIFICATION_TYPE": "U",
    "NORAD_CAT_ID": 57118,
    "ELEMENT_SET_NO": 999,
    "REV_AT_EPOCH": 13311,
    "BSTAR": 0.0012427,
    "MEAN_MOTION_DOT": 0.00104161,
    "MEAN_MOTION_DDOT": 0.0,
    "TLE_LINE1": "1 57118U 23090T   25314.89281739  .00104161  00000+0  12427-2 0  9998",
    "TLE_LINE2": "2 57118  42.9892 151.2794 0008417 278.2291  81.7617 15.59953378133112",
    "COMMENT": "Grouped by shell and plane from TLE"
  },
  {
    "OBJECT_NAME": "STARLINK-11356 [DTC]",
    "OBJECT_ID": "24187A",
    "EPOCH": "2025-11-11T06:54:37.291968",
    "MEAN_MOTION": 15.69716818,
    "ECCENTRICITY": 4.72e-05,
    "INCLINATION": 53.1598,
    "RA_OF_ASC_NODE": 159.9582,
    "ARG_OF_PERICENTER": 147.9222,
    "MEAN_ANOMALY": 212.1824,
    "EPHEMERIS_TYPE": 0,
    "CLASSIFICATION_TYPE": "U",
    "NORAD_CAT_ID": 61574,
    "ELEMENT_SET_NO": 999,
    "REV_AT_EPOCH": 6218,
    "BSTAR": 2.8871000000000002e-05,
    "MEAN_MOTION_DOT": 2.912e-05,
    "MEAN_MOTION_DDOT": 0.0,
    "TLE_LINE1": "1 61574U 24187A   25315.28793162  .00002912  00000+0  28871-4 0  9992",
    "TLE_LINE2": "2 61574  53.1598 159.9582 0000472 147.9222 212.1824 15.69716818 62184",
    "COMMENT": "Grouped by shell and plane from TLE"
  },
  {
    "OBJECT_NAME": "STARLINK-11376 [DTC]",
    "OBJECT_ID": "24187B",
    "EPOCH": "2025-11-11T06:47:33.426528",
    "MEAN_MOTION": 15.69713768,
    "ECCENTRICITY": 5.88e-05,
    "INCLINATION": 53.1591,
    "RA_OF_ASC_NODE": 159.927,
    "ARG_OF_PERICENTER": 190.1927,
    "MEAN_ANOMALY": 169.908,
    "EPHEMERIS_TYPE": 0,
    "CLASSIFICATION_TYPE": "U",
    "NORAD_CAT_ID": 61575,
    "ELEMENT_SET_NO": 999,
    "REV_AT_EPOCH": 6210,
    "BSTAR": 1.6289000000000003e-05,
    "MEAN_MOTION_DOT": 1.386e-05,
    "MEAN_MOTION_DDOT": 0.0,
    "TLE_LINE1": "1 61575U 24187B   25315.28302577  .00001386  00000+0  16289-4 0  9993",
    "TLE_LINE2": "2 61575  53.1591 159.9270 0000588 190.1927 169.9080 15.69713768 62108",
    "COMMENT": "Grouped by shell and plane from TLE"
  },
  {
    "OBJECT_NAME": "STARLINK-11372 [DTC]",
    "OBJECT_ID": "24187C",
    "EPOCH": "2025-11-11T06:40:30.282528",
    "MEAN_MOTION": 15.69697617,
    "ECCENTRICITY": 0.0001594,
    "INCLINATION": 53.1573,
    "RA_OF_ASC_NODE": 159.8918,
    "ARG_OF_PERICENTER": 99.6069,
    "MEAN_ANOMALY": 260.5129,
    "EPHEMERIS_TYPE": 0,
    "CLASSIFICATION_TYPE": "U",
    "NORAD_CAT_ID": 61576,
    "ELEMENT_SET_NO": 999,
    "REV_AT_EPOCH": 6215,
    "BSTAR": 4.4822000000000006e-05,
    "MEAN_MOTION_DOT": 4.841e-05,
    "MEAN_MOTION_DDOT": 0.0,
    "TLE_LINE1": "1 61576U 24187C   25315.27812827  .00004841  00000+0  44822-4 0  9990",
    "TLE_LINE2": "2 61576  53.1573 159.8918 0001594  99.6069 260.5129 15.69697617 62156",
    "COMMENT": "Grouped by shell and plane from TLE"
  },
  {
    "OBJECT_NAME": "STARLINK-11375 [DTC]",
    "OBJECT_ID": "24187D",
    "EPOCH": "2025-11-11T06:33:25.315488",
    "MEAN_MOTION": 15.69713828,
    "ECCENTRICITY": 0.0001266,
    "INCLINATION": 53.153,
    "RA_OF_ASC_NODE": 159.8624,
    "ARG_OF_PERICENTER": 208.0042,
    "MEAN_ANOMALY": 152.0908,
    "EPHEMERIS_TYPE": 0,
    "CLASSIFICATION_TYPE": "U",
    "NORAD_CAT_ID": 61577,
    "ELEMENT_SET_NO": 999,
    "REV_AT_EPOCH": 6215,
    "BSTAR": 2.1929000000000003e-05,
    "MEAN_MOTION_DOT": 2.069e-05,
    "MEAN_MOTION_DDOT": 0.0,
    "TLE_LINE1": "1 61577U 24187D   25315.27320967  .00002069  00000+0  21929-4 0  9993",
    "TLE_LINE2": "2 61577  53.1530 159.8624 0001266 208.0042 152.0908 15.69713828 62150",
    "COMMENT": "Grouped by shell and plane from TLE"
  },
  {
    "OBJECT_NAME": "STARLINK-11669 [DTC]",
    "OBJECT_ID": "25075A",
    "EPOCH": "2025-11-10T14:23:27.192192",
    "MEAN_MOTION": 15.70945811,
    "ECCENTRICITY": 0.0003797,
    "INCLINATION": 43.0009,
    "RA_OF_ASC_NODE": 151.2101,
    "ARG_OF_PERICENTER": 285.0784,
    "MEAN_ANOMALY": 74.9663,
    "EPHEMERIS_TYPE": 0,
    "CLASSIFICATION_TYPE": "U",
    "NORAD_CAT_ID": 63548,
    "ELEMENT_SET_NO": 999,
    "REV_AT_EPOCH": 3452,
    "BSTAR": 0.0027414,
    "MEAN_MOTION_DOT": 0.00369048,
    "MEAN_MOTION_DDOT": 0.0,
    "TLE_LINE1": "1 63548U 25075A   25314.59962028  .00369048  00000+0  27414-2 0  9990",
    "TLE_LINE2": "2 63548  43.0009 151.2101 0003797 285.0784  74.9663 15.70945811 34525",
    "COMMENT": "Grouped by shell and plane from TLE"
  },
  {
    "OBJECT_NAME": "STARLINK-11667 [DTC]",
    "OBJECT_ID": "25075C",
    "EPOCH": "2025-11-10T21:38:29.213664",
    "MEAN_MOTION": 15.70982512,
    "ECCENTRICITY": 0.0003707,
    "INCLINATION": 43.0004,
    "RA_OF_ASC_NODE": 150.0608,
    "ARG_OF_PERICENTER": 283.4543,
    "MEAN_ANOMALY": 76.5911,
    "EPHEMERIS_TYPE": 0,
    "CLASSIFICATION_TYPE": "U",
    "NORAD_CAT_ID": 63550,
    "ELEMENT_SET_NO": 999,
    "REV_AT_EPOCH": 3456,
    "BSTAR": 0.002254,
    "MEAN_MOTION_DOT": 0.00301342,
    "MEAN_MOTION_DDOT": 0.0,
    "TLE_LINE1": "1 63550U 25075C   25314.90172701  .00301342  00000+0  22540-2 0  9997",
    "TLE_LINE2": "2 63550  43.0004 150.0608 0003707 283.4543  76.5911 15.70982512 34565",
    "COMMENT": "Grouped by shell and plane from TLE"
  },
  {
    "OBJECT_NAME": "STARLINK-11626 [DTC]",
    "OBJECT_ID": "25075J",
    "EPOCH": "2025-11-10T21:53:47.074560",
    "MEAN_MOTION": 15.70883928,
    "ECCENTRICITY": 0.0002334,
    "INCLINATION": 42.9999,
    "RA_OF_ASC_NODE": 150.1436,
    "ARG_OF_PERICENTER": 271.2428,
    "MEAN_ANOMALY": 88.8172,
    "EPHEMERIS_TYPE": 0,
    "CLASSIFICATION_TYPE": "U",
    "NORAD_CAT_ID": 63556,
    "ELEMENT_SET_NO": 999,
    "REV_AT_EPOCH": 3456,
    "BSTAR": 0.00084597,
    "MEAN_MOTION_DOT": 0.00109754,
    "MEAN_MOTION_DDOT": 0.0,
    "TLE_LINE1": "1 63556U 25075J   25314.91235040  .00109754  00000+0  84597-3 0  9994",
    "TLE_LINE2": "2 63556  42.9999 150.1436 0002334 271.2428  88.8172 15.70883928 34560",
    "COMMENT": "Grouped by shell and plane from TLE"
  },
  {
    "OBJECT_NAME": "STARLINK-11668 [DTC]",
    "OBJECT_ID": "25075K",
    "EPOCH": "2025-11-10T21:46:08.075424",
    "MEAN_MOTION": 15.70943007,
    "ECCENTRICITY": 0.0002408,
    "INCLINATION": 43.001,
    "RA_OF_ASC_NODE": 150.0995,
    "ARG_OF_PERICENTER": 277.9431,
    "MEAN_ANOMALY": 82.1163,
    "EPHEMERIS_TYPE": 0,
    "CLASSIFICATION_TYPE": "U",
    "NORAD_CAT_ID": 63557,
    "ELEMENT_SET_NO": 999,
    "REV_AT_EPOCH": 3456,
    "BSTAR": 0.0021991,
    "MEAN_MOTION_DOT": 0.0029318,
    "MEAN_MOTION_DDOT": 0.0,
    "TLE_LINE1": "1 63557U 25075K   25314.90703791  .00293180  00000+0  21991-2 0  9992",
    "TLE_LINE2": "2 63557  43.0010 150.0995 0002408 277.9431  82.1163 15.70943007 34567",
    "COMMENT": "Grouped by shell and plane from TLE"
  }
]